GORIZONT 1              
1 11158U 78118A   25103.68597741 -.00000050  00000+0  00000+0 0  9993
2 11158  11.8152 167.4208 3153533 337.2089  11.6722  1.00308478118638
GORIZONT 2              
1 11440U 79062A   25104.01209759 -.00000139  00000+0  00000+0 0  9991
2 11440   6.7967 290.2966 0004298 352.3818   3.2885  1.00305900133702
GORIZONT 3              
1 11648U 79105A   25104.05273766 -.00000243  00000+0  00000+0 0  9998
2 11648   6.9787 292.0233 0011286 251.9743 127.0780  1.00340281118159
GORIZONT 4              
1 11841U 80049A   25103.81859507 -.00000212  00000+0  00000+0 0  9994
2 11841   8.2009 298.9261 0002740   5.9264 181.3581  0.98631880229285
GORIZONT 5              
1 13092U 82020A   25104.11920113  .00000026  00000+0  00000+0 0  9993
2 13092   9.3076 304.6041 0032609 244.7059 120.4368  0.98530412117354
GORIZONT 6              
1 13624U 82103A   25104.01850679 -.00000213  00000+0  00000+0 0  9993
2 13624   8.2750 305.0303 0001648 343.7777 197.1173  1.00171487116636
GORIZONT 7              
1 14160U 83066A   25103.48496497 -.00000091  00000+0  00000+0 0  9996
2 14160  10.1621 315.3352 0012173 337.4074 190.8004  0.98347583150521
GORIZONT 8              
1 14532U 83118A   25103.62231497 -.00000009  00000+0  00000+0 0  9999
2 14532  10.3943 317.3576 0027323 173.9657  14.4489  0.98268448116281
GORIZONT 9              
1 14940U 84041A   25103.68921286  .00000057  00000+0  00000+0 0  9998
2 14940   9.5623 315.1507 0004796 269.5489 282.5288  1.00243493117635
GORIZONT 10             
1 15144U 84078A   25103.88358159 -.00000287  00000+0  00000+0 0  9996
2 15144   9.6886 316.1756 0001989 328.4351 192.0757  1.00227432150273
GORIZONT 11             
1 15484U 85007A   25103.89122706 -.00000061  00000+0  00000+0 0  9994
2 15484   9.9300 318.3196 0002048 240.2309 319.9035  1.00254811148320
GORIZONT 12             
1 16769U 86044A   25103.73725219  .00000119  00000+0  00000+0 0  9997
2 16769  10.7350 323.8989 0003189 305.9242 241.4261  1.00238918142958
GORIZONT 13             
1 17083U 86090A   25103.52227214 -.00000107  00000+0  00000+0 0  9995
2 17083  12.8336 331.4978 0015105 354.7385 358.7493  0.96726280114483
GORIZONT 14             
1 17969U 87040A   25103.82163588 -.00000162  00000+0  00000+0 0  9991
2 17969  11.4588 322.4831 0028851 201.5503 338.6819  0.97660093115661
GORIZONT 15             
1 19017U 88028A   25103.89253025 -.00000167  00000+0  00000+0 0  9992
2 19017  13.2444 333.9652 0034594 183.2576   8.2680  0.97830092115285
GORIZONT 16             
1 19397U 88071A   25103.95951502 -.00000210  00000+0  00000+0 0  9992
2 19397  12.0739 332.6648 0012513  78.3582 116.3146  0.99987415133933
GORIZONT 17             
1 19765U 89004A   25104.02285081 -.00000180  00000+0  00000+0 0  9995
2 19765  12.7474 336.1549 0020392 159.3611  13.5537  0.99066201131314
GORIZONT 18             
1 20107U 89052A   25103.72768057  .00000074  00000+0  00000+0 0  9996
2 20107  12.8471 337.3476 0035572 337.9477 190.0870  0.99399702130142
GORIZONT 19             
1 20263U 89081A   25103.69312248 -.00000138  00000+0  00000+0 0  9996
2 20263  12.5507 336.4181 0004845 259.4966 292.4858  1.00355960 43030
GORIZONT 20             
1 20659U 90054A   25103.69346999 -.00000127  00000+0  00000+0 0  9995
2 20659  13.1011 339.0997 0006331 219.3450 331.8542  1.00223132127389
GORIZONT 21             
1 20923U 90094A   25103.56041262 -.00000352  00000+0  00000+0 0  9994
2 20923  13.1474 339.8317 0006284 248.0713 303.3720  1.00337498126144
GORIZONT 22             
1 20953U 90102A   25103.82728310  .00000132  00000+0  00000+0 0  9997
2 20953  13.1256 340.2767 0003147 341.0523 212.0244  1.00354866126064
GORIZONT 23             
1 21533U 91046A   25104.09331078 -.00000146  00000+0  00000+0 0  9997
2 21533  14.0585 344.5221 0006409 319.7538 225.8903  0.98908389116488
GORIZONT 24             
1 21759U 91074A   25104.19426378 -.00000098  00000+0  00000+0 0  9993
2 21759  14.2994 346.5367 0020770 254.3430 235.9556  0.98444198120810
GORIZONT 25             
1 21922U 92017A   25103.89174833 -.00000115  00000+0  00000+0 0  9995
2 21922  13.8174 345.6848 0025983 105.8912  69.1506  0.99858625120656
GORIZONT 26             
1 22041U 92043A   25103.16143186 -.00000100  00000+0  00000+0 0  9998
2 22041  14.0790 347.8357 0033810 261.7615 286.8370  0.99241436119207
GORIZONT 27             
1 22245U 92082A   25103.49469448 -.00000251  00000+0  00000+0 0  9992
2 22245  13.9778 347.1393 0011477  20.7267 159.2394  1.00218160122812
GORIZONT 28             
1 22880U 93069A   25103.28655806  .00000034  00000+0  00000+0 0  9993
2 22880  14.2958 351.1723 0031988 161.1013  35.6147  0.99648543114847
GORIZONT 29             
1 22907U 93072A   25103.22336277 -.00000176  00000+0  00000+0 0  9997
2 22907  14.1813 350.5173 0010408 354.8356 206.1893  1.00117239114864
GORIZONT 30             
1 23108U 94030A   25102.96121605 -.00000131  00000+0  00000+0 0  9994
2 23108  14.2369 351.3933 0003766 265.5430 276.9326  1.00263622113142
GORIZONT 31             
1 23775U 96005A   25103.89365970 -.00000037  00000+0  00000+0 0  9991
2 23775  14.4431 357.7785 0021329 232.8949 300.8489  0.99898291106755
GORIZONT 32             
1 23880U 96034A   25103.16230067 -.00000237  00000+0  00000+0 0  9990
2 23880  14.4135 358.2166 0007655 355.1927 187.1864  1.00151385105721
GORIZONT 33             
1 26372U 00029A   25103.56397471 -.00000252  00000+0  00000+0 0  9992
2 26372  13.6603   9.9099 0002015 223.6058 316.6786  1.00283801 91124
